{
    "links": {
        "self": "http://www.neowsapp.com/rest/v1/neo/3557084?api_key=iIulBulltgU6a56xZRHN4H3l9WmuAYTsLGpBGhQ2"
    },
    "id": "3557084",
    "neo_reference_id": "3557084",
    "name": "(2011 BH59)",
    "designation": "2011 BH59",
    "nasa_jpl_url": "http://ssd.jpl.nasa.gov/sbdb.cgi?sstr=3557084",
    "absolute_magnitude_h": 24.8,
    "estimated_diameter": {
        "kilometers": {
            "estimated_diameter_min": 0.0291443905,
            "estimated_diameter_max": 0.0651688382
        },
        "meters": {
            "estimated_diameter_min": 29.1443904535,
            "estimated_diameter_max": 65.1688382168
        },
        "miles": {
            "estimated_diameter_min": 0.018109479,
            "estimated_diameter_max": 0.0404940262
        },
        "feet": {
            "estimated_diameter_min": 95.6180819754,
            "estimated_diameter_max": 213.8085311752
        }
    },
    "is_potentially_hazardous_asteroid": false,
    "close_approach_data": [
        {
            "close_approach_date": "2011-01-15",
            "close_approach_date_full": "2011-Jan-15 16:16",
            "epoch_date_close_approach": 1295108160000,
            "relative_velocity": {
                "kilometers_per_second": "2.1194295772",
                "kilometers_per_hour": "7629.946477983",
                "miles_per_hour": "4740.9520212778"
            },
            "miss_distance": {
                "astronomical": "0.1612835957",
                "lunar": "62.7393187273",
                "kilometers": "24127682.382661159",
                "miles": "14992246.6328716342"
            },
            "orbiting_body": "Earth"
        }
    ],
    "orbital_data": {
        "orbit_id": "6",
        "orbit_determination_date": "2017-04-06 08:54:42",
        "first_observation_date": "2011-01-30",
        "last_observation_date": "2011-02-05",
        "data_arc_in_days": 6,
        "observations_used": 9,
        "orbit_uncertainty": "9",
        "minimum_orbit_intersection": ".16126",
        "jupiter_tisserand_invariant": "4.266",
        "epoch_osculation": "2455592.5",
        "eccentricity": ".2960812410570201",
        "semi_major_axis": "1.62632937526463",
        "inclination": "2.917932650093574",
        "ascending_node_longitude": "119.1821826416486",
        "orbital_period": "757.5497976373736",
        "perihelion_distance": "1.14480375546879",
        "perihelion_argument": "354.6139417224309",
        "aphelion_distance": "2.10785499506047",
        "perihelion_time": "2455575.754805964594",
        "mean_anomaly": "7.957588889267704",
        "mean_motion": ".4752162842928063",
        "equinox": "J2000",
        "orbit_class": {
            "orbit_class_type": "AMO",
            "orbit_class_description": "Near-Earth asteroid orbits similar to that of 1221 Amor",
            "orbit_class_range": "1.017 AU < q (perihelion) < 1.3 AU"
        }
    },
    "is_sentry_object": false
}